STARLINK-30069          
1 56834U 23079M   26067.48212902 -.00002416  00000+0 -80472-4 0  9995
2 56834  42.9986 110.4464 0000469 272.6695  87.4103 15.26726881152740
STARLINK-36047          
1 66795U 25278E   26068.53126251  .00016027  00000+0  59027-3 0  9995
2 66795  43.0018 115.3715 0001460 254.6191 105.4499 15.27601267 15187
